ORBCOMM FM103 [+]       
1 40091U 14040F   24060.35790517  .00000808  00000+0  21797-3 0  9996
2 40091  47.0055  92.3010 0002887 269.1841  90.8713 14.56336727494995
ORBCOMM FM114 [+]       
1 41179U 15081A   24060.52936671  .00001088  00000+0  28054-3 0  9996
2 41179  47.0047   0.8016 0002208 324.1008  35.9728 14.56346697435389
ORBCOMM FM119 [-]       
1 41180U 15081B   24060.29248008  .00000804  00000+0  21705-3 0  9993
2 41180  46.9999 271.1068 0001037  23.1620 336.9311 14.56328438436601
ORBCOMM FM105 [-]       
1 41181U 15081C   24060.56865037  .00000390  00000+0  15796-3 0  9994
2 41181  46.9996 230.2646 0001719 341.4777  18.6040 14.44250754432266
ORBCOMM FM110 [+]       
1 41182U 15081D   24060.23195731  .00001342  00000+0  33719-3 0  9999
2 41182  47.0035   1.6147 0001179 175.6350 184.4545 14.56354261435214
ORBCOMM FM118 [+]       
1 41183U 15081E   24060.55227306  .00001235  00000+0  31332-3 0  9999
2 41183  47.0059   0.3977 0001314 172.5674 187.5231 14.56354029435368
ORBCOMM FM112 [+]       
1 41184U 15081F   24060.61344345  .00000831  00000+0  22313-3 0  9990
2 41184  46.9979 268.8297 0000851 358.0560   2.0321 14.56319741436593
ORBCOMM FM113 [+]       
1 41185U 15081G   24059.97302537  .00000971  00000+0  25457-3 0  9992
2 41185  46.9998 272.0993 0000497  19.8248 340.2656 14.56315968436489
